0 BRAZILSAT B3
1 25152U 98006A   13282.38207550 -.00000182  00000-0  10000-3 0  9451
2 25152 001.3824 077.0360 0002924 125.9082 220.8092 01.00272599 57495
0 BRAZILSAT B3
1 25152U 98006A   13283.41944719  .00000000  00000-0  10000-3 0  9471
2 25152 001.3671 077.5587 0003255 108.8879 251.7308 01.00265648 57516
0 BRAZILSAT B3
1 25152U 98006A   13284.37367851 -.00000188  00000-0  10000-3 0  9460
2 25152 001.3864 077.0147 0002869 124.7584 220.9212 01.00272176 57513
0 BRAZILSAT B3
1 25152U 98006A   13287.36482578 -.00000193  00000-0  10000-3 0  9473
2 25152 001.3925 076.9864 0002878 125.0036 220.4647 01.00271692 57543
0 BRAZILSAT B3
1 25152U 98006A   13289.34466882 -.00000192  00000-0  10000-3 0  9483
2 25152 001.3966 076.9671 0002909 125.6800 214.5009 01.00271418 57568
0 BRAZILSAT B3
1 25152U 98006A   13293.57022094 -.00000184  00000-0  10000-3 0  9498
2 25152 001.3992 077.0923 0003475 138.1498 287.2682 01.00271730 57617
0 BRAZILSAT B3
1 25152U 98006A   13294.57156481 -.00000183  00000-0  10000-3 0  9508
2 25152 001.4013 077.0786 0003462 138.8689 288.0328 01.00271669 57622
